{"type": "FeatureCollection", "features": [{"type": "Feature", "properties": {"norad_id": 66549, "name": "SHIJIAN-28 (SJ-28)", "group": "last-30-days", "lat": 4.860094190116881, "lon": -8.721221629853686, "alt_km": 35784.478455915785, "timestamp": "2025-12-21T09:37:21.369739+00:00", "meta": {"OBJECT_NAME": "SHIJIAN-28 (SJ-28)", "OBJECT_ID": "2025-277A", "EPOCH": "2025-12-21T01:46:14.820096", "MEAN_MOTION": 1.00267669, "ECCENTRICITY": 0.0001044, "INCLINATION": 4.9982, "RA_OF_ASC_NODE": 274.8263, "ARG_OF_PERICENTER": 136.542, "MEAN_ANOMALY": 181.897, "EPHEMERIS_TYPE": 0, "CLASSIFICATION_TYPE": "U", "NORAD_CAT_ID": 66549, "ELEMENT_SET_NO": 999, "REV_AT_EPOCH": 36, "BSTAR": 0, "MEAN_MOTION_DOT": -3.32e-06, "MEAN_MOTION_DDOT": 0}, "tle": {"line1": "1 66549U 25277A   25355.07378264 -.00000332  00000+0  00000+0 0  9997", "line2": "2 66549   4.9982 274.8263 0001044 136.5420 181.8970  1.00267669   366"}}, "geometry": {"type": "Point", "coordinates": [-8.721221629853686, 4.860094190116881]}}, {"type": "Feature", "properties": {"norad_id": 66550, "name": "CZ-7A R/B", "group": "last-30-days", "lat": 0.5513364897557023, "lon": -92.63722094582121, "alt_km": 24834.64720754951, "timestamp": "2025-12-21T09:37:21.369797+00:00", "meta": {"OBJECT_NAME": "CZ-7A R/B", "OBJECT_ID": "2025-277B", "EPOCH": "2025-12-18T08:54:45.891072", "MEAN_MOTION": 2.8884184, "ECCENTRICITY": 0.6879086, "INCLINATION": 14.3533, "RA_OF_ASC_NODE": 266.9093, "ARG_OF_PERICENTER": 194.6822, "MEAN_ANOMALY": 125.1782, "EPHEMERIS_TYPE": 0, "CLASSIFICATION_TYPE": "U", "NORAD_CAT_ID": 66550, "ELEMENT_SET_NO": 999, "REV_AT_EPOCH": 50, "BSTAR": 0.0030391, "MEAN_MOTION_DOT": 0.0266328, "MEAN_MOTION_DDOT": 1.4058e-06}, "tle": {"line1": "1 66550U 25277B   25352.37136448  .02663280  14058-5  30391-2 0  9996", "line2": "2 66550  14.3533 266.9093 6879086 194.6822 125.1782  2.88841840   508"}}, "geometry": {"type": "Point", "coordinates": [-92.63722094582121, 0.5513364897557023]}}, {"type": "Feature", "properties": {"norad_id": 66554, "name": "GLOBAL-33", "group": "last-30-days", "lat": -2.733087207808953, "lon": 3.950263588054331, "alt_km": 473.31486084553126, "timestamp": "2025-12-21T09:37:21.369827+00:00", "meta": {"OBJECT_NAME": "GLOBAL-33", "OBJECT_ID": "2025-267A", "EPOCH": "2025-12-20T10:09:54.490176", "MEAN_MOTION": 15.3162198, "ECCENTRICITY": 0.00038385, "INCLINATION": 42.0214, "RA_OF_ASC_NODE": 12.634, "ARG_OF_PERICENTER": 144.4876, "MEAN_ANOMALY": 215.6217, "EPHEMERIS_TYPE": 0, "CLASSIFICATION_TYPE": "U", "NORAD_CAT_ID": 66554, "ELEMENT_SET_NO": 999, "REV_AT_EPOCH": 458, "BSTAR": 0.00030721953, "MEAN_MOTION_DOT": 9.345e-05, "MEAN_MOTION_DDOT": 0}, "tle": {"line1": "1 66554U 25267A   25354.42354734  .00009345  00000+0  30722-3 0  9996", "line2": "2 66554  42.0214  12.6340 0003838 144.4876 215.6217 15.31621980  4580"}}, "geometry": {"type": "Point", "coordinates": [3.950263588054331, -2.733087207808953]}}, {"type": "Feature", "properties": {"norad_id": 66557, "name": "STARLINK-35699", "group": "last-30-days", "lat": -42.82709760775327, "lon": -25.39185532584273, "alt_km": 418.6643070515902, "timestamp": "2025-12-21T09:37:21.369841+00:00", "meta": {"OBJECT_NAME": "STARLINK-35699", "OBJECT_ID": "2025-268A", "EPOCH": "2025-12-19T13:12:05.651424", "MEAN_MOTION": 15.50689057, "ECCENTRICITY": 0.0002216, "INCLINATION": 43.0009, "RA_OF_ASC_NODE": 81.3713, "ARG_OF_PERICENTER": 38.1148, "MEAN_ANOMALY": 321.9869, "EPHEMERIS_TYPE": 0, "CLASSIFICATION_TYPE": "U", "NORAD_CAT_ID": 66557, "ELEMENT_SET_NO": 999, "REV_AT_EPOCH": 568, "BSTAR": 0.00095065, "MEAN_MOTION_DOT": 0.00056051, "MEAN_MOTION_DDOT": 0}, "tle": {"line1": "1 66557U 25268A   25353.55006541  .00056051  00000+0  95065-3 0  9990", "line2": "2 66557  43.0009  81.3713 0002216  38.1148 321.9869 15.50689057  5689"}}, "geometry": {"type": "Point", "coordinates": [-25.39185532584273, -42.82709760775327]}}, {"type": "Feature", "properties": {"norad_id": 66558, "name": "STARLINK-35695", "group": "last-30-days", "lat": -38.54248284346335, "lon": 11.722631365525695, "alt_km": 400.27466486775484, "timestamp": "2025-12-21T09:37:21.369853+00:00", "meta": {"OBJECT_NAME": "STARLINK-35695", "OBJECT_ID": "2025-268B", "EPOCH": "2025-12-21T04:00:01.998720", "MEAN_MOTION": 15.56355852, "ECCENTRICITY": 0.0001626, "INCLINATION": 43.0004, "RA_OF_ASC_NODE": 71.8541, "ARG_OF_PERICENTER": 253.4963, "MEAN_ANOMALY": 166.3654, "EPHEMERIS_TYPE": 0, "CLASSIFICATION_TYPE": "U", "NORAD_CAT_ID": 66558, "ELEMENT_SET_NO": 999, "REV_AT_EPOCH": 602, "BSTAR": 0.0025731, "MEAN_MOTION_DOT": 0.00190442, "MEAN_MOTION_DDOT": 0}, "tle": {"line1": "1 66558U 25268B   25355.16668980  .00190442  00000+0  25731-2 0  9996", "line2": "2 66558  43.0004  71.8541 0001626 253.4963 166.3654 15.56355852  6020"}}, "geometry": {"type": "Point", "coordinates": [11.722631365525695, -38.54248284346335]}}, {"type": "Feature", "properties": {"norad_id": 66559, "name": "STARLINK-35419", "group": "last-30-days", "lat": -37.82008377250695, "lon": 14.062221335057595, "alt_km": 400.3970546243572, "timestamp": "2025-12-21T09:37:21.369864+00:00", "meta": {"OBJECT_NAME": "STARLINK-35419", "OBJECT_ID": "2025-268C", "EPOCH": "2025-12-21T04:00:01.998720", "MEAN_MOTION": 15.56410448, "ECCENTRICITY": 0.0001595, "INCLINATION": 43.0008, "RA_OF_ASC_NODE": 71.8521, "ARG_OF_PERICENTER": 256.0866, "MEAN_ANOMALY": 165.7532, "EPHEMERIS_TYPE": 0, "CLASSIFICATION_TYPE": "U", "NORAD_CAT_ID": 66559, "ELEMENT_SET_NO": 999, "REV_AT_EPOCH": 602, "BSTAR": -0.00051231, "MEAN_MOTION_DOT": -0.00037358, "MEAN_MOTION_DDOT": 0}, "tle": {"line1": "1 66559U 25268C   25355.16668980 -.00037358  00000+0 -51231-3 0  9990", "line2": "2 66559  43.0008  71.8521 0001595 256.0866 165.7532 15.56410448  6020"}}, "geometry": {"type": "Point", "coordinates": [14.062221335057595, -37.82008377250695]}}, {"type": "Feature", "properties": {"norad_id": 66560, "name": "STARLINK-35411", "group": "last-30-days", "lat": -37.08184502339554, "lon": 16.264610458811003, "alt_km": 400.47679814118055, "timestamp": "2025-12-21T09:37:21.369875+00:00", "meta": {"OBJECT_NAME": "STARLINK-35411", "OBJECT_ID": "2025-268D", "EPOCH": "2025-12-21T04:00:01.998720", "MEAN_MOTION": 15.56335643, "ECCENTRICITY": 0.0001555, "INCLINATION": 43.0011, "RA_OF_ASC_NODE": 71.8451, "ARG_OF_PERICENTER": 252.3111, "MEAN_ANOMALY": 171.4692, "EPHEMERIS_TYPE": 0, "CLASSIFICATION_TYPE": "U", "NORAD_CAT_ID": 66560, "ELEMENT_SET_NO": 999, "REV_AT_EPOCH": 602, "BSTAR": 0.0014126, "MEAN_MOTION_DOT": 0.00103159, "MEAN_MOTION_DDOT": 0}, "tle": {"line1": "1 66560U 25268D   25355.16668980  .00103159  00000+0  14126-2 0  9994", "line2": "2 66560  43.0011  71.8451 0001555 252.3111 171.4692 15.56335643  6020"}}, "geometry": {"type": "Point", "coordinates": [16.264610458811003, -37.08184502339554]}}, {"type": "Feature", "properties": {"norad_id": 66561, "name": "STARLINK-35305", "group": "last-30-days", "lat": -35.47505248627037, "lon": 20.569850688927577, "alt_km": 400.2831711658173, "timestamp": "2025-12-21T09:37:21.369886+00:00", "meta": {"OBJECT_NAME": "STARLINK-35305", "OBJECT_ID": "2025-268E", "EPOCH": "2025-12-21T04:00:01.998720", "MEAN_MOTION": 15.56334117, "ECCENTRICITY": 0.0001759, "INCLINATION": 43.0006, "RA_OF_ASC_NODE": 71.8364, "ARG_OF_PERICENTER": 257.2391, "MEAN_ANOMALY": 170.3766, "EPHEMERIS_TYPE": 0, "CLASSIFICATION_TYPE": "U", "NORAD_CAT_ID": 66561, "ELEMENT_SET_NO": 999, "REV_AT_EPOCH": 597, "BSTAR": 0.0014223, "MEAN_MOTION_DOT": 0.00103872, "MEAN_MOTION_DDOT": 0}, "tle": {"line1": "1 66561U 25268E   25355.16668980  .00103872  00000+0  14223-2 0  9995", "line2": "2 66561  43.0006  71.8364 0001759 257.2391 170.3766 15.56334117  5976"}}, "geometry": {"type": "Point", "coordinates": [20.569850688927577, -35.47505248627037]}}, {"type": "Feature", "properties": {"norad_id": 66562, "name": "STARLINK-35579", "group": "last-30-days", "lat": -36.29341955358147, "lon": 18.452794163268702, "alt_km": 400.40482007898026, "timestamp": "2025-12-21T09:37:21.369899+00:00", "meta": {"OBJECT_NAME": "STARLINK-35579", "OBJECT_ID": "2025-268F", "EPOCH": "2025-12-21T04:00:01.998720", "MEAN_MOTION": 15.56406971, "ECCENTRICITY": 0.0001557, "INCLINATION": 43.001, "RA_OF_ASC_NODE": 71.842, "ARG_OF_PERICENTER": 254.6107, "MEAN_ANOMALY": 171.0637, "EPHEMERIS_TYPE": 0, "CLASSIFICATION_TYPE": "U", "NORAD_CAT_ID": 66562, "ELEMENT_SET_NO": 999, "REV_AT_EPOCH": 602, "BSTAR": -0.00040342, "MEAN_MOTION_DOT": -0.0002952, "MEAN_MOTION_DDOT": 0}, "tle": {"line1": "1 66562U 25268F   25355.16668980 -.00029520  00000+0 -40342-3 0  9997", "line2": "2 66562  43.0010  71.8420 0001557 254.6107 171.0637 15.56406971  6027"}}, "geometry": {"type": "Point", "coordinates": [18.452794163268702, -36.29341955358147]}}, {"type": "Feature", "properties": {"norad_id": 66563, "name": "STARLINK-35437", "group": "last-30-days", "lat": -34.61131034764198, "lon": 22.667759151869376, "alt_km": 400.3705354785052, "timestamp": "2025-12-21T09:37:21.369936+00:00", "meta": {"OBJECT_NAME": "STARLINK-35437", "OBJECT_ID": "2025-268G", "EPOCH": "2025-12-21T04:00:01.998720", "MEAN_MOTION": 15.56409506, "ECCENTRICITY": 0.0001589, "INCLINATION": 43.0008, "RA_OF_ASC_NODE": 71.833, "ARG_OF_PERICENTER": 253.2353, "MEAN_ANOMALY": 176.2711, "EPHEMERIS_TYPE": 0, "CLASSIFICATION_TYPE": "U", "NORAD_CAT_ID": 66563, "ELEMENT_SET_NO": 999, "REV_AT_EPOCH": 602, "BSTAR": -0.00047282, "MEAN_MOTION_DOT": -0.00034517, "MEAN_MOTION_DDOT": 0}, "tle": {"line1": "1 66563U 25268G   25355.16668980 -.00034517  00000+0 -47282-3 0  9990", "line2": "2 66563  43.0008  71.8330 0001589 253.2353 176.2711 15.56409506  6025"}}, "geometry": {"type": "Point", "coordinates": [22.667759151869376, -34.61131034764198]}}]}